ONEWEB-0386             
1 49312U 21090AK  24054.76998137  .00000083  00000+0  17329-3 0  9991
2 49312  87.9121  82.5125 0002186  99.3356 260.8025 13.20770621118354
ONEWEB-0387             
1 49313U 21090AL  24054.82994610  .00000045  00000+0  79349-4 0  9990
2 49313  87.9130  82.5551 0001765 104.6478 255.4851 13.20771547118361
ONEWEB-0388             
1 49314U 21090AM  24054.88458107  .00000074  00000+0  15314-3 0  9996
2 49314  87.9154 113.0474 0002147 100.4064 259.7311 13.19724892115052
SSS-2A                  
1 49324U 21091K   24054.92020539  .00134704  00000+0  15912-2 0  9998
2 49324  97.4093 254.7391 0004489  76.7110 283.4647 15.60855841131736
SHIJIAN-21 (SJ-21)      
1 49330U 21094A   24054.91090965 -.00000367  00000+0  00000+0 0  9994
2 49330   9.5971  46.0696 0079057  29.2786 156.5455  1.00371047  8793
SES-17                  
1 49332U 21095A   24054.89264910 -.00000278  00000+0  00000+0 0  9998
2 49332   0.0166 102.2659 0000897 211.7037  93.5380  1.00275046  9378
SYRACUSE 4A             
1 49333U 21095B   24054.86924372  .00000129  00000+0  00000+0 0  9995
2 49333   0.0275 132.7912 0001495 202.8859 176.0050  1.00269524  9496
QZS-1R                  
1 49336U 21096A   24054.43287800 -.00000277  00000+0  00000+0 0  9995
2 49336  35.7053  92.2720 0747386 269.1147  79.0900  1.00299827  8536
JILIN-1 GAOFEN 2F       
1 49338U 21097A   24054.93690916  .00011550  00000+0  54523-3 0  9997
2 49338  97.5766 167.6127 0009423 208.7562 151.3154 15.19570588128456
YAOGAN-32 2A            
1 49383U 21099A   24054.92680921  .00001410  00000+0  29688-3 0  9991
2 49383  98.1836 179.9178 0001153  74.6968 285.4360 14.61019722122934
YAOGAN-32 2B            
1 49384U 21099B   24054.92669548  .00001396  00000+0  29400-3 0  9999
2 49384  98.1849 180.0455 0001111  88.2175 271.9153 14.61019923122938
SDGSAT 1                
1 49387U 21100A   24054.93610842  .00004548  00000+0  21749-3 0  9999
2 49387  97.3820 115.9469 0002359  64.6840 295.4639 15.19486380127704
YAOGAN-35 A             
1 49390U 21101A   24054.79000847  .00014369  00000+0  59875-3 0  9999
2 49390  34.9934 183.7403 0006953  35.5687 324.5490 15.22873881128094
YAOGAN-35 B             
1 49391U 21101B   24054.78362365  .00022964  00000+0  94999-3 0  9991
2 49391  34.9926 183.7242 0008539  76.3481 283.8184 15.23033278128089
YAOGAN-35 C             
1 49393U 21101D   24054.77814346  .00021175  00000+0  85095-3 0  9993
2 49393  34.9998 182.8445 0011717 287.5835  72.3600 15.23989065128118
ASTERISC                
1 49395U 21102A   24054.61434206  .00020785  00000+0  10317-2 0  9992
2 49395  97.4521 107.4561 0010799 264.1886  95.8116 15.17671344125888
TEIKYOSAT-4 (OORURI)    
1 49396U 21102B   24054.87513254  .00002870  00000+0  21400-3 0  9993
2 49396  97.4784 103.7682 0012540 308.6907  51.3197 15.03586853125574
RAISE 2                 
1 49397U 21102C   24054.90716583  .00004558  00000+0  31373-3 0  9993
2 49397  97.4377 102.4015 0011298 341.4627  18.6187 15.06314236125664
Z-SAT                   
1 49399U 21102E   24054.92296853  .00003789  00000+0  25551-3 0  9996
2 49399  97.4496 105.1412 0019255 291.4672  68.4502 15.07085987125779
HIBARI                  
1 49400U 21102F   24054.69873159  .00006945  00000+0  43070-3 0  9996
2 49400  97.4473 106.1147 0017076 280.5101  79.4204 15.09921669125834
DRUMS                   
1 49401U 21102G   24054.91630424  .00004050  00000+0  27029-3 0  9999
2 49401  97.4480 105.5114 0018183 281.9076  78.0114 15.07449241125807
KOSEN-1                 
1 49402U 21102H   24054.71085341  .00005151  00000+0  32303-3 0  9994
2 49402  97.4417 106.0087 0018045 276.3493  83.5681 15.09622521125863
STARLINK-3151           
1 49408U 21104A   24054.90858534 -.00001143  00000+0 -53774-4 0  9990
2 49408  53.2184 332.5889 0001009  51.7007 308.4076 15.08833073126193
STARLINK-3075           
1 49409U 21104B   24054.92328795  .00003084  00000+0  21179-3 0  9991
2 49409  53.2187 332.5023 0001312 119.4301 240.6822 15.08835094126206
STARLINK-3147           
1 49410U 21104C   24054.91688123  .00001268  00000+0  97735-4 0  9990
2 49410  53.2186 332.5413 0001515 100.7339 259.3824 15.08841056126191
STARLINK-3162           
1 49411U 21104D   24054.90949020  .00000910  00000+0  75293-4 0  9994
2 49411  53.2196 322.5678 0001595 111.3455 248.7707 15.08827609126336
STARLINK-3144           
1 49412U 21104E   24054.91960640  .00000893  00000+0  74218-4 0  9993
2 49412  53.2184 332.5216 0001729 107.5771 252.5410 15.08840920126201
STARLINK-3157           
1 49413U 21104F   24054.90676819  .00007582  00000+0  49429-3 0  9992
2 49413  53.2181 322.5861 0001218  96.9689 263.1442 15.08813950126336
STARLINK-3146           
1 49414U 21104G   24054.91224319  .00001055  00000+0  84374-4 0  9996
2 49414  53.2206 332.5537 0001891 109.1744 250.9452 15.08838249126199
STARLINK-3159           
1 49415U 21104H   24054.90212821  .00000092  00000+0  23893-4 0  9990
2 49415  53.2191 322.5986 0001281 103.4460 256.6675 15.08833362126321
STARLINK-3133           
1 49416U 21104J   24054.77240909  .00000002  00000+0  18192-4 0  9991
2 49416  53.2181 333.1848 0001349  81.0804 279.0341 15.08834566126173
STARLINK-3154           
1 49417U 21104K   24054.93152459  .00000395  00000+0  42938-4 0  9992
2 49417  53.2182 322.1205 0001502 103.2290 256.8870 15.08838105126338
STARLINK-3111           
1 49418U 21104L   24054.50375923  .00003783  00000+0  25556-3 0  9999
2 49418  53.2196 334.3916 0001500  96.2140 263.9023 15.08850539126122
STARLINK-3120           
1 49419U 21104M   24054.49272318  .00000223  00000+0  32117-4 0  9990
2 49419  53.2186 334.4422 0001505  93.5366 266.5799 15.08845841126129
STARLINK-3110           
1 49420U 21104N   24054.76504541  .00001659  00000+0  12232-3 0  9997
2 49420  53.2179 333.2220 0001724  83.5917 276.5272 15.08841620126162
STARLINK-3112           
1 49421U 21104P   24054.93062367  .00000008  00000+0  18630-4 0  9998
2 49421  53.2192 332.2868 0001666 114.2196 245.8971 15.08836001126196
STARLINK-3161           
1 49422U 21104Q   24054.49637888  .00002079  00000+0  14859-3 0  9994
2 49422  53.2196 334.4264 0001612  88.8020 271.3157 15.08868862126121
STARLINK-3149           
1 49423U 21104R   24054.94921335  .00000372  00000+0  43088-4 0  9999
2 49423  53.2197 332.4697 0001804  84.5855 275.5343 15.07203144126198
STARLINK-3135           
1 49424U 21104S   24054.95272949  .00000387  00000+0  42403-4 0  9997
2 49424  53.2187 332.3772 0001639  88.1732 271.9448 15.08832942126192
STARLINK-3139           
1 49425U 21104T   24054.93896690  .00000007  00000+0  18505-4 0  9996
2 49425  53.2198 332.4420 0001460  97.8426 262.2732 15.08833786126203
STARLINK-3114           
1 49426U 21104U   24054.94537341  .00001018  00000+0  82092-4 0  9998
2 49426  53.2195 332.4072 0002263  78.3099 281.8147 15.08831618126193
STARLINK-3131           
1 49427U 21104V   24054.93528922 -.00001562  00000+0 -80095-4 0  9990
2 49427  53.2188 332.4630 0001292  94.5891 265.5248 15.08835557126206
STARLINK-3121           
1 49428U 21104W   24054.91591168  .00000991  00000+0  80363-4 0  9992
2 49428  53.2182 332.4454 0001669 111.6562 248.4608 15.08839667126205
STARLINK-3138           
1 49430U 21104Y   24054.82489253  .00011241  00000+0  72245-3 0  9995
2 49430  53.2188 333.2316 0001630  89.4946 270.6233 15.08880746126188
STARLINK-3153           
1 49431U 21104Z   24054.91323208  .00001146  00000+0  90113-4 0  9991
2 49431  53.2198 332.7818 0001828  93.0577 267.0624 15.08835958126191
STARLINK-3158           
1 49432U 21104AA  24054.89572374  .00000326  00000+0  38583-4 0  9991
2 49432  53.2187 322.6297 0001443 103.2033 256.9120 15.08832060127418
STARLINK-3079           
1 49433U 21104AB  24054.89568605  .00001519  00000+0  11354-3 0  9995
2 49433  53.2187 312.6310 0001553  86.0140 274.1029 15.08840640127562
STARLINK-3134           
1 49434U 21104AC  24054.94170421  .00000195  00000+0  30358-4 0  9992
2 49434  53.2187 332.5750 0001307  91.7600 268.3542 15.08836333127281
STARLINK-3117           
1 49435U 21104AD  24054.96656440  .00001367  00000+0  10397-3 0  9997
2 49435  53.2169 312.3158 0001309  94.4821 265.6321 15.08839635126481
STARLINK-3049           
1 49436U 21104AE  24054.96560690  .00001054  00000+0  84301-4 0  9999
2 49436  53.2179 312.3201 0001538 102.5100 257.6064 15.08840448126486
STARLINK-3130           
1 49437U 21104AF  24054.89201272  .00000481  00000+0  48338-4 0  9993
2 49437  53.2180 312.6501 0001679  90.0106 270.1079 15.08829258126479
STARLINK-3044           
1 49438U 21104AG  24054.94814714 -.00005553  00000+0 -33116-3 0  9995
2 49438  53.2176 312.3294 0001458 100.9963 259.1193 15.08829807126483
STARLINK-3108           
1 49439U 21104AH  24054.92776527  .00004459  00000+0  31221-4 0  9991
2 49439  53.2119 297.4586 0001015 124.6955 235.4163 15.76731787126692
STARLINK-3105           
1 49440U 21104AJ  24054.95088481  .00000134  00000+0  26479-4 0  9996
2 49440  53.2161 312.3841 0000882  86.9127 273.1966 15.08844272126480
STARLINK-3128           
1 49441U 21104AK  24054.93248718 -.00000438  00000+0 -94539-5 0  9998
2 49441  53.2174 312.4609 0001655 122.6445 237.4707 15.08836547126480
STARLINK-3098           
1 49442U 21104AL  24054.88097049 -.00002168  00000+0 -11822-3 0  9996
2 49442  53.2181 312.6954 0001463  85.6997 274.4162 15.08824024126473
STARLINK-3136           
1 49443U 21104AM  24054.92880801  .00001019  00000+0  82093-4 0  9999
2 49443  53.2179 312.4838 0001474 102.0591 258.0566 15.08833100126488
STARLINK-3126           
1 49444U 21104AN  24054.94448336  .00001298  00000+0  99637-4 0  9996
2 49444  53.2181 312.4172 0001312  95.9342 264.1800 15.08834102126480
STARLINK-3122           
1 49445U 21104AP  24054.46520483  .00004603  00000+0  30703-3 0  9999
2 49445  53.2182 324.9570 0001735  80.0531 280.0657 15.08851990126263
